NORAD_CAT_ID,OBJECT_NAME,OBJECT_TYPE,EPOCH,MEAN_MOTION,ECCENTRICITY,INCLINATION,RA_OF_ASC_NODE,ARG_OF_PERICENTER,MEAN_ANOMALY,BSTAR,MEAN_MOTION_DOT,MEAN_MOTION_DDOT,TLE_LINE0,TLE_LINE1,TLE_LINE2,SEMIMAJOR_AXIS,PERIOD,APOGEE,PERIGEE,DECAYED
53987.0,STARLINK-5112,PAYLOAD,2023-02-24 03:03:56,15.0884078,0.0001223,53.2151,155.3294,97.7156,262.3975,0.00083133,0.00012968,0.0,0 STARLINK-5112,1 53987U 22125Z   23055.12773177  .00012968  00000-0  83133-3 0  9991,2 53987  53.2151 155.3294 0001223  97.7156 262.3975 15.08840780 22024,6917.878,95.438,540.589,538.897,0.0
53987.0,STARLINK-5112,PAYLOAD,2023-02-24 12:36:14,15.08853199,0.000115,53.2149,153.5443,100.7149,259.3973,0.00088532,0.00013835,0.0,0 STARLINK-5112,1 53987U 22125Z   23055.52516874  .00013835  00000-0  88532-3 0  9996,2 53987  53.2149 153.5443 0001150 100.7149 259.3973 15.08853199 22014,6917.84,95.437,540.501,538.909,0.0
53987.0,STARLINK-5112,PAYLOAD,2023-02-24 23:43:56,15.08843734,0.0001541,53.2153,151.4638,77.9547,282.1618,0.00048658,7.465e-05,0.0,0 STARLINK-5112,1 53987U 22125Z   23055.98885272  .00007465  00000-0  48658-3 0  9994,2 53987  53.2153 151.4638 0001541  77.9547 282.1618 15.08843734 22152,6917.869,95.437,540.8,538.668,0.0
53987.0,STARLINK-5112,PAYLOAD,2023-02-25 12:27:02,15.08829477,0.000102,53.2148,149.0838,81.5408,278.57,0.00013319,1.832e-05,0.0,0 STARLINK-5112,1 53987U 22125Z   23056.51877644  .00001832  00000-0  13319-3 0  9996,2 53987  53.2148 149.0838 0001020  81.5408 278.5700 15.08829477 22160,6917.913,95.438,540.483,539.072,0.0
53987.0,STARLINK-5112,PAYLOAD,2023-02-25 18:48:34,15.08838704,0.0001038,53.2147,147.8942,80.7119,279.399,0.00067275,0.00010435,0.0,0 STARLINK-5112,1 53987U 22125Z   23056.78373700  .00010435  00000-0  67275-3 0  9998,2 53987  53.2147 147.8942 0001038  80.7119 279.3990 15.08838704 22275,6917.884,95.438,540.467,539.031,0.0
53987.0,STARLINK-5112,PAYLOAD,2023-02-26 09:07:02,15.08873589,0.0001234,53.2153,145.2188,69.4489,290.6635,0.0017575,0.00027819,0.0,0 STARLINK-5112,1 53987U 22125Z   23057.37989253  .00027819  00000-0  17575-2 0  9991,2 53987  53.2153 145.2188 0001234  69.4489 290.6635 15.08873589 22360,6917.778,95.435,540.496,538.789,0.0
53987.0,STARLINK-5112,PAYLOAD,2023-02-26 10:42:25,15.08878672,0.0001223,53.2154,144.9219,67.3683,292.7438,0.001983,0.00031446,0.0,0 STARLINK-5112,1 53987U 22125Z   23057.44613095  .00031446  00000-0  19830-2 0  9994,2 53987  53.2154 144.9219 0001223  67.3683 292.7438 15.08878672 22309,6917.762,95.435,540.473,538.781,0.0
53987.0,STARLINK-5112,PAYLOAD,2023-02-26 15:28:34,15.0889305,0.0001253,53.2154,144.0292,70.5748,289.5379,0.002018,0.00032021,0.0,0 STARLINK-5112,1 53987U 22125Z   23057.64484392  .00032021  00000-0  20180-2 0  9992,2 53987  53.2154 144.0292 0001253  70.5748 289.5379 15.08893050 22330,6917.718,95.434,540.45,538.716,0.0
53987.0,STARLINK-5112,PAYLOAD,2023-02-27 08:57:49,15.08855241,0.0001621,53.2158,140.7579,64.3994,295.7166,0.0021446,0.00034023,0.0,0 STARLINK-5112,1 53987U 22125Z   23058.37349261  .00034023  00000-0  21446-2 0  9998,2 53987  53.2158 140.7579 0001621  64.3994 295.7166 15.08855241 22511,6917.834,95.437,540.82,538.577,0.0
53987.0,STARLINK-5112,PAYLOAD,2023-02-27 15:19:21,15.08894548,0.0001164,53.2157,139.5704,72.1737,287.9382,0.0046395,0.00074441,0.0,0 STARLINK-5112,1 53987U 22125Z   23058.63844694  .00074441  00000-0  46395-2 0  9995,2 53987  53.2157 139.5704 0001164  72.1737 287.9382 15.08894548 22550,6917.714,95.434,540.384,538.773,0.0
53987.0,STARLINK-5112,PAYLOAD,2023-02-28 11:59:21,15.08891878,0.0001247,53.2165,135.7017,114.9586,245.1536,0.0026519,0.0004223,0.0,0 STARLINK-5112,1 53987U 22125Z   23059.49955640  .00042230  00000-0  26519-2 0  9991,2 53987  53.2165 135.7017 0001247 114.9586 245.1536 15.08891878 22687,6917.722,95.434,540.449,538.724,0.0
53987.0,STARLINK-5112,PAYLOAD,2023-02-28 21:31:40,15.08852528,0.0001587,53.2166,133.917,75.1689,284.9479,0.0011575,0.00018188,0.0,0 STARLINK-5112,1 53987U 22125Z   23059.89699824  .00018188  00000-0  11575-2 0  9995,2 53987  53.2166 133.9170 0001587  75.1689 284.9479 15.08852528 22672,6917.842,95.437,540.805,538.609,0.0
53987.0,STARLINK-5112,PAYLOAD,2023-03-01 10:14:47,15.08774149,0.0001265,53.2166,131.5389,81.1053,279.0082,0.00074349,0.00011543,0.0,0 STARLINK-5112,1 53987U 22125Z   23060.42694379  .00011543  00000-0  74349-3 0  9993,2 53987  53.2166 131.5389 0001265  81.1053 279.0082 15.08774149 22827,6918.082,95.442,540.822,539.072,0.0
53987.0,STARLINK-5112,PAYLOAD,2023-03-01 21:22:31,15.08809142,0.0001135,53.2161,129.4591,80.767,279.345,0.0021189,0.00033567,0.0,0 STARLINK-5112,1 53987U 22125Z   23060.89063721  .00033567  00000-0  21189-2 0  9998,2 53987  53.2161 129.4591 0001135  80.7670 279.3450 15.08809142 22823,6917.975,95.44,540.625,539.055,0.0
53987.0,STARLINK-5112,PAYLOAD,2023-03-02 03:44:03,15.08835213,0.0001089,53.2157,128.2684,73.8317,286.2794,0.0024538,0.00038975,0.0,0 STARLINK-5112,1 53987U 22125Z   23061.15559942  .00038975  00000-0  24538-2 0  9992,2 53987  53.2157 128.2684 0001089  73.8317 286.2794 15.08835213 22935,6917.895,95.438,540.513,539.007,0.0
53987.0,STARLINK-5112,PAYLOAD,2023-03-02 11:40:59,15.08862646,0.0001118,53.2159,126.7824,76.1018,284.0098,0.0024239,0.00038523,0.0,0 STARLINK-5112,1 53987U 22125Z   23061.48679635  .00038523  00000-0  24239-2 0  9997,2 53987  53.2159 126.7824 0001118  76.1018 284.0098 15.08862646 22914,6917.811,95.436,540.45,538.903,0.0
53987.0,STARLINK-5112,PAYLOAD,2023-03-03 05:10:12,15.08889978,9.43e-05,53.2156,123.5112,33.2809,326.8243,0.0027078,0.0004313,0.0,0 STARLINK-5112,1 53987U 22125Z   23062.21542565  .00043130  00000-0  27078-2 0  9994,2 53987  53.2156 123.5112 0000943  33.2809 326.8243 15.08889978 23097,6917.728,95.434,540.245,538.94,0.0
53987.0,STARLINK-5112,PAYLOAD,2023-03-03 11:31:44,15.088989,0.0001204,53.2154,122.3226,74.57,285.5425,0.0021693,0.00034461,0.0,0 STARLINK-5112,1 53987U 22125Z   23062.48037736  .00034461  00000-0  21693-2 0  9996,2 53987  53.2154 122.3226 0001204  74.5700 285.5425 15.08898900 23062,6917.7,95.434,540.398,538.732,0.0
53987.0,STARLINK-5112,PAYLOAD,2023-03-03 21:04:03,15.08877517,0.0001347,53.2152,120.538,87.8922,272.2224,0.0010769,0.0001691,0.0,0 STARLINK-5112,1 53987U 22125Z   23062.87781397  .00016910  00000-0  10769-2 0  9999,2 53987  53.2152 120.5380 0001347  87.8922 272.2224 15.08877517 23120,6917.766,95.435,540.563,538.699,0.0
53987.0,STARLINK-5112,PAYLOAD,2023-03-04 03:25:35,15.08845897,0.0001363,53.2159,119.35,97.4442,262.6705,0.00024868,3.673e-05,0.0,0 STARLINK-5112,1 53987U 22125Z   23063.14277564  .00003673  00000-0  24868-3 0  9994,2 53987  53.2159 119.3500 0001363  97.4442 262.6705 15.08845897 23234,6917.862,95.437,540.67,538.784,0.0
53987.0,STARLINK-5112,PAYLOAD,2023-03-04 12:57:54,15.08851283,0.0001345,53.216,117.5655,98.8189,261.2956,0.0018593,0.00029436,0.0,0 STARLINK-5112,1 53987U 22125Z   23063.54021492  .00029436  00000-0  18593-2 0  9997,2 53987  53.2160 117.5655 0001345  98.8189 261.2956 15.08851283 23228,6917.846,95.437,540.641,538.78,0.0
53987.0,STARLINK-5112,PAYLOAD,2023-03-04 20:54:50,15.08834106,0.0001749,53.216,116.0782,86.3255,273.7937,0.00095666,0.00014968,0.0,0 STARLINK-5112,1 53987U 22125Z   23063.87142285  .00014968  00000-0  95666-3 0  9998,2 53987  53.2160 116.0782 0001749  86.3255 273.7937 15.08834106 23274,6917.898,95.438,540.973,538.553,0.0
53987.0,STARLINK-5112,PAYLOAD,2023-03-05 20:45:38,15.08845291,0.0001711,53.2169,111.6153,91.0751,269.0437,0.0009004,0.00014073,0.0,0 STARLINK-5112,1 53987U 22125Z   23064.86502551  .00014073  00000-0  90040-3 0  9992,2 53987  53.2169 111.6153 0001711  91.0751 269.0437 15.08845291 23426,6917.864,95.437,540.913,538.546,0.0
53987.0,STARLINK-5112,PAYLOAD,2023-03-06 14:14:51,15.08876108,0.0001529,53.2175,108.3416,105.3425,254.7736,0.0011468,0.00018028,0.0,0 STARLINK-5112,1 53987U 22125Z   23065.59365197  .00018028  00000-0  11468-2 0  9996,2 53987  53.2175 108.3416 0001529 105.3425 254.7736 15.08876108 23606,6917.77,95.435,540.693,538.577,0.0
53987.0,STARLINK-5112,PAYLOAD,2023-03-07 02:57:57,15.08836793,0.000176,53.216,105.9636,103.5167,256.6022,-0.00016623,-2.932e-05,0.0,0 STARLINK-5112,1 53987U 22125Z   23066.12358003 -.00002932  00000-0 -16623-3 0  9992,2 53987  53.2160 105.9636 0001760 103.5167 256.6022 15.08836793 23680,6917.89,95.438,540.973,538.538,0.0
53987.0,STARLINK-5112,PAYLOAD,2023-03-07 18:51:49,15.08838706,0.000113,53.2166,102.9925,82.0209,278.0911,0.00066143,0.00010254,0.0,0 STARLINK-5112,1 53987U 22125Z   23066.78598634  .00010254  00000-0  66143-3 0  9996,2 53987  53.2166 102.9925 0001130  82.0209 278.0911 15.08838706 23718,6917.884,95.438,540.531,538.968,0.0
53987.0,STARLINK-5112,PAYLOAD,2023-03-08 09:10:17,15.08854473,9.88e-05,53.2165,100.3174,100.1475,259.9628,0.0016246,0.00025672,0.0,0 STARLINK-5112,1 53987U 22125Z   23067.38214593  .00025672  00000-0  16246-2 0  9990,2 53987  53.2165 100.3174 0000988 100.1475 259.9628 15.08854473 23871,6917.836,95.437,540.385,539.018,0.0
53987.0,STARLINK-5112,PAYLOAD,2023-03-08 18:42:36,15.08858122,0.000115,53.2163,98.5319,84.0142,276.0981,0.001532,0.0002419,0.0,0 STARLINK-5112,1 53987U 22125Z   23067.77958636  .00024190  00000-0  15320-2 0  9992,2 53987  53.2163  98.5319 0001150  84.0142 276.0981 15.08858122 23935,6917.825,95.436,540.486,538.894,0.0
53987.0,STARLINK-5112,PAYLOAD,2023-03-09 18:33:22,15.08856923,0.0001106,53.2173,94.0732,96.3664,263.7454,0.00049159,7.548e-05,0.0,0 STARLINK-5112,1 53987U 22125Z   23068.77318083  .00007548  00000-0  49159-3 0  9995,2 53987  53.2173  94.0732 0001106  96.3664 263.7454 15.08856923 24084,6917.829,95.436,540.459,538.929,0.0
53987.0,STARLINK-5112,PAYLOAD,2023-03-10 10:27:14,15.08851257,0.000142,53.2179,91.098,95.1346,264.9808,0.00015138,2.123e-05,0.0,0 STARLINK-5112,1 53987U 22125Z   23069.43557933  .00002123  00000-0  15138-3 0  9992,2 53987  53.2179  91.0980 0001420  95.1346 264.9808 15.08851257 24187,6917.846,95.437,540.693,538.729,0.0
